[{"OBJECT_NAME":"STARLINK-5321","OBJECT_ID":"2023-010AK","EPOCH":"2026-03-09T23:19:06.645216","MEAN_MOTION":14.98355814,"ECCENTRICITY":0.00033983,"INCLINATION":70.0006,"RA_OF_ASC_NODE":23.6548,"ARG_OF_PERICENTER":273.9412,"MEAN_ANOMALY":86.1358,"EPHEMERIS_TYPE":0,"CLASSIFICATION_TYPE":"U","NORAD_CAT_ID":55302,"ELEMENT_SET_NO":999,"REV_AT_EPOCH":17331,"BSTAR":9.9820986e-5,"MEAN_MOTION_DOT":1.099e-5,"MEAN_MOTION_DDOT":0},{"OBJECT_NAME":"CZ-6A DEB","OBJECT_ID":"2022-151LD","EPOCH":"2026-03-09T16:54:45.205632","MEAN_MOTION":14.92245273,"ECCENTRICITY":0.00472182,"INCLINATION":98.6465,"RA_OF_ASC_NODE":142.156,"ARG_OF_PERICENTER":203.7976,"MEAN_ANOMALY":156.1058,"EPHEMERIS_TYPE":0,"CLASSIFICATION_TYPE":"U","NORAD_CAT_ID":54553,"ELEMENT_SET_NO":999,"REV_AT_EPOCH":10459,"BSTAR":0.004690798,"MEAN_MOTION_DOT":0.00049128,"MEAN_MOTION_DDOT":0}]
